OBJECT_NAME,OBJECT_ID,EPOCH,MEAN_MOTION,ECCENTRICITY,INCLINATION,RA_OF_ASC_NODE,ARG_OF_PERICENTER,MEAN_ANOMALY,EPHEMERIS_TYPE,CLASSIFICATION_TYPE,NORAD_CAT_ID,ELEMENT_SET_NO,REV_AT_EPOCH,BSTAR,MEAN_MOTION_DOT,MEAN_MOTION_DDOT
TIGER-7,2024-043AV,2026-05-31T04:50:11.080032,15.48142536,.0005051,97.5462,301.4293,222.7403,137.3454,0,U,59141,999,12534,.39045E-3,.20443E-3,0
TRANSPORTER-10 OBJECT AW,2024-043AW,2026-05-30T23:19:25.368960,16.02698237,.0007727,97.5317,310.2570,250.2179,109.8267,0,U,59142,999,12585,.98909E-3,.585791E-2,.16079E-3
LEMUR-2-JOHNNYTRUONG,2024-043BA,2026-05-30T22:58:17.460192,15.59099731,.0004129,97.5363,301.6122,229.7774,130.3121,0,U,59146,999,12535,.59287E-3,.46377E-3,0
HAMMER,2024-043BC,2026-05-31T04:06:15.973344,15.49665811,.0006103,97.5429,299.1243,240.2578,119.8066,0,U,59148,999,12517,.11442E-2,.63739E-3,0
STARLINK-31312,2024-044A,2026-05-30T20:01:32.330208,15.27574667,.00011216,43.0020,312.4174,225.5391,134.5369,0,U,59152,999,12674,.12937831E-4,.94E-6,0
STARLINK-31308,2024-044B,2026-05-30T22:10:09.777792,15.27578345,.0000984,43.0020,315.7804,255.5724,104.5018,0,U,59153,999,12672,-.14914E-5,-.303E-5,0
STARLINK-31270,2024-044C,2026-05-30T22:33:01.625760,15.27555115,.0000564,42.9973,2.6116,312.3432,47.7371,0,U,59154,999,12617,-.14499E-3,-.4246E-4,0
STARLINK-31341,2024-044D,2026-05-31T00:26:47.859936,15.27578927,.0001472,43.0012,5.7896,277.8980,82.1705,0,U,59155,999,12611,-.33775E-5,-.355E-5,0
STARLINK-31338,2024-044E,2026-05-31T00:21:17.214048,15.27557321,.000172,43.0028,5.7590,263.3215,96.7441,0,U,59156,999,12611,-.89299E-4,-.2717E-4,0
STARLINK-31334,2024-044F,2026-05-30T22:35:58.675776,15.27585891,.0001471,43.0024,6.0696,276.4412,83.6272,0,U,59157,999,12610,.10296E-3,.2573E-4,0
STARLINK-31297,2024-044G,2026-05-30T22:38:32.409024,15.27578844,.0001191,43.0013,2.6399,270.3151,89.7564,0,U,59158,999,12617,-.25969E-4,-.977E-5,0
STARLINK-31182,2024-044H,2026-05-30T23:19:02.174016,15.27569772,.0000632,43.0032,1.9903,217.4679,142.6128,0,U,59159,999,12618,.87182E-4,.2137E-4,0
STARLINK-31327,2024-044J,2026-05-31T00:16:25.551840,15.27553268,.0001323,43.0013,2.2896,277.1784,82.8917,0,U,59160,999,12618,-.89637E-4,-.2726E-4,0
STARLINK-31256,2024-044K,2026-05-30T23:24:34.807104,15.27587576,.0001205,43.0008,2.0166,243.9414,116.1314,0,U,59161,999,12618,.32106E-4,.622E-5,0
STARLINK-31272,2024-044L,2026-05-30T23:30:08.337888,15.27576765,.000163,43.0041,2.0505,275.0453,85.0212,0,U,59162,999,12615,.38084E-5,-.157E-5,0
STARLINK-31278,2024-044M,2026-05-30T23:35:41.274240,15.27581590,.0000897,43.0051,2.0803,285.0478,75.0275,0,U,59163,999,12615,.13232E-3,.3381E-4,0
STARLINK-31309,2024-044N,2026-05-30T23:41:14.247744,15.27582676,.0001074,43.0027,2.1046,250.2272,109.8464,0,U,59164,999,12618,.68291E-4,.1618E-4,0
STARLINK-31325,2024-044P,2026-05-30T23:44:56.625792,15.27581337,.0001163,43.0014,2.1278,279.8163,80.2557,0,U,59165,999,12615,-.54122E-4,-.1751E-4,0
STARLINK-31342,2024-044Q,2026-05-30T23:50:30.789888,15.27550584,.000125,43.0013,2.1532,256.1012,103.9701,0,U,59166,999,12618,.33464E-4,.658E-5,0
STARLINK-31298,2024-044R,2026-05-30T23:56:02.469120,15.27589262,.0000514,43.0013,2.1815,258.2412,101.8382,0,U,59167,999,12615,-.18734E-4,-.777E-5,0
STARLINK-31322,2024-044S,2026-05-30T22:59:13.139808,15.27308064,.000035,43.0033,2.7391,169.6664,190.4195,0,U,59168,999,12617,-.13167E-2,-.36019E-3,0
STARLINK-31329,2024-044T,2026-05-31T00:22:01.073280,15.27536665,.0002027,43.0040,2.3213,7.3101,352.7780,0,U,59169,999,12615,-.30182E-3,-.8548E-4,0
STARLINK-31340,2024-044U,2026-05-30T22:47:37.727808,15.27665364,.00019,43.0031,322.9116,252.5864,107.4780,0,U,59170,999,12660,.61185E-3,.16656E-3,0
STARLINK-31344,2024-044V,2026-05-30T22:53:20.514624,15.27573804,.0000762,43.0015,2.7107,258.1593,101.9174,0,U,59171,999,12617,-.14232E-4,-.653E-5,0
STARLINK-31348,2024-044W,2026-05-30T20:37:51.549024,15.27599501,.00017025,43.0028,316.1585,278.0649,82.0009,0,U,59172,999,12667,.98129779E-3,.26856E-3,0
STARLINK-31289,2024-044X,2026-05-31T00:01:34.842144,15.27708595,.0001391,43.0024,2.2069,288.6682,71.4019,0,U,59173,999,12618,-.903E-3,-.25124E-3,0
STARLINK-31283,2024-044Y,2026-05-31T04:00:01.998720,15.27616551,.0002394,43.0040,314.3255,269.6825,23.2920,0,U,59174,999,579,-.68387E-4,-.2146E-4,0
EXO-0,2023-174DK,2026-05-30T23:39:29.729664,15.34361154,.0008134,97.3827,231.1310,223.2551,136.8054,0,U,59175,999,14240,.35816E-3,.11854E-3,0
STARLINK-31439,2024-045A,2026-05-30T23:20:37.945824,15.27592351,.0001735,43.0035,344.5563,266.8221,93.2432,0,U,59178,999,6211,.39061E-3,.10506E-3,0
STARLINK-31410,2024-045B,2026-05-30T23:18:05.525856,15.27587505,.0001002,42.9984,348.0051,291.2307,68.8437,0,U,59179,999,12574,.54239E-3,.14697E-3,0
STARLINK-31395,2024-045C,2026-05-30T20:41:13.387200,15.27581455,.000152,43.0055,348.8986,254.7960,105.2724,0,U,59180,999,12572,-.32345E-4,-.1152E-4,0
STARLINK-31486,2024-045D,2026-05-30T21:52:01.595712,15.27593362,.0001632,43.0030,344.9513,251.6179,108.4495,0,U,59181,999,12577,.19454E-3,.5097E-4,0
STARLINK-31411,2024-045E,2026-05-30T22:31:49.836000,15.27589475,.0001433,43.0012,347.7569,212.8567,147.2195,0,U,59182,999,12574,.30489E-3,.8139E-4,0
STARLINK-31382,2024-045G,2026-05-30T22:24:25.350336,15.27577002,.0000921,43.0014,347.7178,205.2107,154.8700,0,U,59184,999,12574,.14617E-3,.3762E-4,0
STARLINK-31394,2024-045H,2026-05-30T22:48:43.694208,15.27578951,.0001173,43.0020,337.4771,281.6495,78.4225,0,U,59185,999,12586,.51893E-4,.1166E-4,0
STARLINK-31403,2024-045J,2026-05-30T22:13:43.796640,15.27592549,.0001979,43.0061,326.6873,268.0694,91.9931,0,U,59186,999,12592,.16199E-4,.183E-5,0
STARLINK-31514,2024-045K,2026-05-30T23:12:32.319072,15.27560485,.0002818,43.0073,347.9741,271.6117,88.4412,0,U,59187,999,12574,.24627E-4,.415E-5,0
STARLINK-31478,2024-045L,2026-05-30T13:32:47.896800,15.27537894,.0001543,43.0023,350.1029,270.2696,89.7979,0,U,59188,999,12568,-.16501715E-2,-.45337E-3,0
STARLINK-31498,2024-045M,2026-05-30T22:00:34.767648,15.27576661,.0001135,43.0043,348.4516,273.8336,86.2386,0,U,59189,999,12573,.61854E-5,-.92E-6,0
STARLINK-31563,2024-045N,2026-05-30T22:41:05.038080,15.27576527,.0001248,43.0018,347.8021,198.6378,161.4428,0,U,59190,999,12574,-.1192E-4,-.59E-5,0
STARLINK-31551,2024-045P,2026-05-30T22:25:07.213728,15.27582017,.0001479,43.0038,344.2889,259.8677,100.2008,0,U,59191,999,12578,.13429E-3,.3435E-4,0
STARLINK-31536,2024-045Q,2026-05-31T04:00:01.998720,15.27583316,.0001542,43.0010,346.7494,273.6628,140.9718,0,U,59192,999,580,-.7581E-4,-.2348E-4,0
STARLINK-31548,2024-045R,2026-05-30T22:09:50.173632,15.27584474,.000118,43.0046,348.5005,282.2036,77.8684,0,U,59193,999,12573,-.99868E-5,-.537E-5,0
STARLINK-31542,2024-045S,2026-05-30T22:20:41.601120,15.27619639,.0001089,43.0018,347.6994,280.4578,79.6151,0,U,59194,999,12574,.37919E-3,.10199E-3,0
STARLINK-31554,2024-045T,2026-05-30T21:49:29.434944,15.27585183,.0001568,43.0060,348.4009,338.9893,21.0895,0,U,59195,999,12573,-.60504E-4,-.1927E-4,0
STARLINK-31558,2024-045U,2026-05-30T22:26:16.516032,15.27579433,.0000997,43.0016,347.7258,218.3337,141.7444,0,U,59196,999,12575,.48585E-4,.1075E-4,0
STARLINK-31275,2024-045V,2026-05-30T21:55:02.125056,15.27593852,.0001625,43.0019,348.4244,264.7756,95.2910,0,U,59197,999,12573,.93116E-3,.25461E-3,0
STARLINK-31590,2024-045W,2026-05-30T22:06:08.308800,15.27585442,.0001413,43.0039,348.4763,252.8415,107.2282,0,U,59198,999,12573,-.47085E-4,-.1558E-4,0
STARLINK-31567,2024-045X,2026-05-30T22:46:37.716096,15.27576794,.0001798,42.9999,347.8287,227.5066,132.5634,0,U,59199,999,12574,.13957E-3,.358E-4,0
STARLINK-31503,2024-045Y,2026-05-30T22:52:10.814016,15.27582017,.0001245,43.0009,347.8603,254.1321,105.9394,0,U,59200,999,12574,.91328E-4,.2252E-4,0
STARLINK-31603,2024-046A,2026-05-31T02:29:52.689120,15.30199634,.0001252,53.1591,132.8155,107.2866,252.8272,0,U,59201,999,12566,.23335E-4,.332E-5,0
STARLINK-31602,2024-046B,2026-05-31T02:26:23.836992,15.34378819,.0001278,53.1611,131.3805,95.3368,264.7781,0,U,59202,999,12568,-.32057E-4,-.1458E-4,0
STARLINK-31577,2024-046C,2026-05-31T04:00:01.998720,15.34385749,.0001369,53.1583,130.8031,86.7434,52.3780,0,U,59203,999,586,-.12472E-3,-.4586E-4,0
STARLINK-31522,2024-046D,2026-05-31T02:26:50.413632,15.30204799,.0001231,53.1603,132.7990,87.2339,272.8802,0,U,59204,999,12566,-.35612E-4,-.1414E-4,0
STARLINK-31586,2024-046E,2026-05-31T04:58:28.472736,15.30187883,.0001721,53.1597,132.0315,114.5434,245.5746,0,U,59205,999,12568,.16125E-4,.118E-5,0
STARLINK-31247,2024-046F,2026-05-31T03:44:10.097088,15.30197146,.0001601,53.1607,132.4177,91.2661,268.8524,0,U,59206,999,12567,.5033E-4,.1131E-4,0
STARLINK-31591,2024-046G,2026-05-31T02:29:24.171936,15.34394093,.0001193,53.1590,131.3935,89.4966,270.6174,0,U,59207,999,12568,.87742E-4,.2589E-4,0
STARLINK-31576,2024-046H,2026-05-31T02:35:27.560832,15.34385912,.0001442,53.1584,131.4173,78.0021,282.1143,0,U,59208,999,12568,-.13784E-3,-.5028E-4,0
STARLINK-31601,2024-046J,2026-05-31T05:06:41.745888,15.34388156,.0001329,53.1610,130.6517,95.0190,265.0964,0,U,59209,999,12570,.20559E-4,.318E-5,0
STARLINK-31520,2024-046K,2026-05-31T03:39:37.010880,15.30192087,.0001367,53.1599,132.3977,97.2937,262.8219,0,U,59210,999,12567,-.51837E-5,-.513E-5,0
STARLINK-31496,2024-046L,2026-05-31T03:40:20.561664,15.30193677,.0001249,53.1605,119.6266,95.6070,264.5073,0,U,59211,999,12584,.33215E-4,.624E-5,0
STARLINK-31492,2024-046M,2026-05-31T02:32:55.019904,15.30195738,.0001189,53.1606,132.8173,89.9282,270.1855,0,U,59212,999,12565,.27249E-4,.448E-5,0
STARLINK-31517,2024-046N,2026-05-31T02:38:29.878656,15.34390144,.0001088,53.1605,131.4597,94.8639,265.2488,0,U,59213,999,12567,.47607E-4,.1232E-4,0
STARLINK-31604,2024-046P,2026-05-31T02:32:24.033408,15.34423794,.0001085,53.1610,131.4040,97.9871,262.1255,0,U,59214,999,12567,.15718E-3,.4942E-4,0
STARLINK-31434,2024-046Q,2026-05-31T05:03:39.905856,15.34387430,.0001496,53.1610,130.6378,107.2480,252.8686,0,U,59215,999,12569,.314E-4,.684E-5,0
